start=new Date('2022-08-02T00:00:00.000Z').valueOf();
sats=[{"SEMIMAJOR_AXIS":"6925.358","APOAPSIS":"548.235","BSTAR":"0.00014947000000","RCS_SIZE":"LARGE","FILE":"3526929","TLE_LINE1":"1 48577U 21041AA  22213.47030812  .00001945  00000-0  14947-3 0  9991","REV_AT_EPOCH":"6681","PERIAPSIS":"546.210","ECCENTRICITY":"0.00014620","NORAD_CAT_ID":"48577","EPOCH":"2022-08-01T11:17:14.621568","OBJECT_NAME":"STARLINK-2231","GP_ID":"209333799","SITE":"AFETR","MEAN_MOTION_DDOT":"0.0000000000000","ELEMENT_SET_NO":"999","MEAN_MOTION_DOT":"0.00001945","INCLINATION":"53.0547","CENTER_NAME":"EARTH","MEAN_ELEMENT_THEORY":"SGP4","OBJECT_ID":"2021-041AA","ARG_OF_PERICENTER":"73.2631","TLE_LINE2":"2 48577  53.0547 280.3515 0001462  73.2631 286.8518 15.06397077 66810","CLASSIFICATION_TYPE":"U","MEAN_ANOMALY":"286.8518","COUNTRY_CODE":"US","MEAN_MOTION":"15.06397077","DECAY_DATE":null,"LAUNCH_DATE":"2021-05-15","REF_FRAME":"TEME","TIME_SYSTEM":"UTC","PERIOD":"95.592","OBJECT_TYPE":"PAYLOAD","RA_OF_ASC_NODE":"280.3515","EPHEMERIS_TYPE":"0"},{"BSTAR":"0.00036733000000","RCS_SIZE":"LARGE","FILE":"3527139","TLE_LINE1":"1 48578U 21041AB  22213.89795154  .00005191  00000-0  36733-3 0  9999","SEMIMAJOR_AXIS":"6925.407","APOAPSIS":"548.151","ELEMENT_SET_NO":"999","MEAN_MOTION_DDOT":"0.0000000000000","OBJECT_NAME":"STARLINK-2232","EPOCH":"2022-08-01T21:33:03.013056","SITE":"AFETR","GP_ID":"209389222","PERIAPSIS":"546.394","ECCENTRICITY":"0.00012690","NORAD_CAT_ID":"48578","REV_AT_EPOCH":"6687","ARG_OF_PERICENTER":"80.6714","TLE_LINE2":"2 48578  53.0550 278.9544 0001269  80.6714 279.4418 15.06380771 66875","MEAN_ELEMENT_THEORY":"SGP4","CENTER_NAME":"EARTH","OBJECT_ID":"2021-041AB","MEAN_MOTION_DOT":"0.00005191","INCLINATION":"53.0550","EPHEMERIS_TYPE":"0","PERIOD":"95.593","TIME_SYSTEM":"UTC","RA_OF_ASC_NODE":"278.9544","OBJECT_TYPE":"PAYLOAD","DECAY_DATE":null,"MEAN_MOTION":"15.06380771","REF_FRAME":"TEME","LAUNCH_DATE":"2021-05-15","CLASSIFICATION_TYPE":"U","COUNTRY_CODE":"US","MEAN_ANOMALY":"279.4418"},{"REF_FRAME":"TEME","LAUNCH_DATE":"2021-05-15","DECAY_DATE":null,"MEAN_MOTION":"15.06391997","CLASSIFICATION_TYPE":"U","MEAN_ANOMALY":"290.1813","COUNTRY_CODE":"US","EPHEMERIS_TYPE":"0","PERIOD":"95.593","TIME_SYSTEM":"UTC","RA_OF_ASC_NODE":"279.8200","OBJECT_TYPE":"PAYLOAD","OBJECT_ID":"2021-041AC","MEAN_ELEMENT_THEORY":"SGP4","CENTER_NAME":"EARTH","MEAN_MOTION_DOT":"0.00001499","INCLINATION":"53.0548","ARG_OF_PERICENTER":"69.9324","TLE_LINE2":"2 48579  53.0548 279.8200 0001375  69.9324 290.1813 15.06391997 66834","PERIAPSIS":"546.286","NORAD_CAT_ID":"48579","ECCENTRICITY":"0.00013750","REV_AT_EPOCH":"6683","ELEMENT_SET_NO":"999","MEAN_MOTION_DDOT":"0.0000000000000","OBJECT_NAME":"STARLINK-2233","EPOCH":"2022-08-01T14:12:24.745248","GP_ID":"209332803","SITE":"AFETR","APOAPSIS":"548.190","SEMIMAJOR_AXIS":"6925.373","RCS_SIZE":"LARGE","BSTAR":"0.00011953000000","FILE":"3526929","TLE_LINE1":"1 48579U 21041AC  22213.59195307  .00001499  00000-0  11953-3 0  9995"},{"DECAY_DATE":null,"MEAN_MOTION":"15.06390194","LAUNCH_DATE":"2021-05-15","REF_FRAME":"TEME","CLASSIFICATION_TYPE":"U","MEAN_ANOMALY":"283.1446","COUNTRY_CODE":"US","EPHEMERIS_TYPE":"0","PERIOD":"95.593","TIME_SYSTEM":"UTC","RA_OF_ASC_NODE":"254.9769","OBJECT_TYPE":"PAYLOAD","MEAN_ELEMENT_THEORY":"SGP4","CENTER_NAME":"EARTH","OBJECT_ID":"2021-041AD","MEAN_MOTION_DOT":"-0.00000669","INCLINATION":"53.0541","ARG_OF_PERICENTER":"76.9691","TLE_LINE2":"2 48580  53.0541 254.9769 0001330  76.9691 283.1446 15.06390194 67180","PERIAPSIS":"546.323","ECCENTRICITY":"0.00013300","NORAD_CAT_ID":"48580","REV_AT_EPOCH":"6718","MEAN_MOTION_DDOT":"0.0000000000000","ELEMENT_SET_NO":"999","OBJECT_NAME":"STARLINK-2234","EPOCH":"2022-08-01T13:23:56.603328","SITE":"AFETR","GP_ID":"209334051","SEMIMAJOR_AXIS":"6925.379","APOAPSIS":"548.165","BSTAR":"-0.00002604600000","RCS_SIZE":"LARGE","FILE":"3526929","TLE_LINE1":"1 48580U 21041AD  22213.55829402 -.00000669  00000-0 -26046-4 0  9993"},{"DECAY_DATE":null,"MEAN_MOTION":"15.06399689","LAUNCH_DATE":"2021-05-15","REF_FRAME":"TEME","MEAN_ANOMALY":"290.8820","COUNTRY_CODE":"US","CLASSIFICATION_TYPE":"U","EPHEMERIS_TYPE":"0","RA_OF_ASC_NODE":"243.9510","OBJECT_TYPE":"PAYLOAD","TIME_SYSTEM":"UTC","PERIOD":"95.592","MEAN_ELEMENT_THEORY":"SGP4","CENTER_NAME":"EARTH","OBJECT_ID":"2021-041AE","INCLINATION":"53.0531","MEAN_MOTION_DOT":"0.00001271","TLE_LINE2":"2 48581  53.0531 243.9510 0001510  69.2330 290.8820 15.06399689 67366","ARG_OF_PERICENTER":"69.2330","ECCENTRICITY":"0.00015100","NORAD_CAT_ID":"48581","PERIAPSIS":"546.169","REV_AT_EPOCH":"6736","ELEMENT_SET_NO":"999","MEAN_MOTION_DDOT":"0.0000000000000","GP_ID":"209388472","SITE":"AFETR","OBJECT_NAME":"STARLINK-2235","EPOCH":"2022-08-01T18:50:23.534304","SEMIMAJOR_AXIS":"6925.350","APOAPSIS":"548.260","FILE":"3527139","TLE_LINE1":"1 48581U 21041AE  22213.78499461  .00001271  00000-0  10420-3 0  9993","BSTAR":"0.00010420000000","RCS_SIZE":"LARGE"},{"GP_ID":"209332554","SITE":"AFETR","EPOCH":"2022-08-01T12:01:43.992768","OBJECT_NAME":"STARLINK-2236","ELEMENT_SET_NO":"999","MEAN_MOTION_DDOT":"0.0000000000000","REV_AT_EPOCH":"6731","ECCENTRICITY":"0.00013260","NORAD_CAT_ID":"48582","PERIAPSIS":"546.309","FILE":"3526929","TLE_LINE1":"1 48582U 21041AF  22213.50120362  .00001208  00000-0  99968-4 0  9990","BSTAR":"0.00009996800000","RCS_SIZE":"LARGE","SEMIMAJOR_AXIS":"6925.362","APOAPSIS":"548.145","RA_OF_ASC_NODE":"245.3747","OBJECT_TYPE":"PAYLOAD","TIME_SYSTEM":"UTC","PERIOD":"95.592","EPHEMERIS_TYPE":"0","COUNTRY_CODE":"US","MEAN_ANOMALY":"289.3352","CLASSIFICATION_TYPE":"U","MEAN_MOTION":"15.06395590","DECAY_DATE":null,"REF_FRAME":"TEME","LAUNCH_DATE":"2021-05-15","TLE_LINE2":"2 48582  53.0540 245.3747 0001326  70.7781 289.3352 15.06395590 67312","ARG_OF_PERICENTER":"70.7781","INCLINATION":"53.0540","MEAN_MOTION_DOT":"0.00001208","CENTER_NAME":"EARTH","MEAN_ELEMENT_THEORY":"SGP4","OBJECT_ID":"2021-041AF"},{"EPHEMERIS_TYPE":"0","PERIOD":"95.593","TIME_SYSTEM":"UTC","RA_OF_ASC_NODE":"288.4103","OBJECT_TYPE":"PAYLOAD","DECAY_DATE":null,"MEAN_MOTION":"15.06390346","REF_FRAME":"TEME","LAUNCH_DATE":"2021-05-15","CLASSIFICATION_TYPE":"U","MEAN_ANOMALY":"279.7865","COUNTRY_CODE":"US","ARG_OF_PERICENTER":"80.3279","TLE_LINE2":"2 48583  53.0548 288.4103 0001366  80.3279 279.7865 15.06390346 66740","MEAN_ELEMENT_THEORY":"SGP4","CENTER_NAME":"EARTH","OBJECT_ID":"2021-041AG","MEAN_MOTION_DOT":"-0.00000357","INCLINATION":"53.0548","ELEMENT_SET_NO":"999","MEAN_MOTION_DDOT":"0.0000000000000","OBJECT_NAME":"STARLINK-2237","EPOCH":"2022-08-01T21:42:14.307264","GP_ID":"209389464","SITE":"AFETR","PERIAPSIS":"546.297","ECCENTRICITY":"0.00013660","NORAD_CAT_ID":"48583","REV_AT_EPOCH":"6674","BSTAR":"-0.00000505620000","RCS_SIZE":"LARGE","FILE":"3527139","TLE_LINE1":"1 48583U 21041AG  22213.90433226 -.00000357  00000-0 -50562-5 0  9995","SEMIMAJOR_AXIS":"6925.378","APOAPSIS":"548.189"},{"MEAN_MOTION_DOT":"0.00000360","INCLINATION":"53.0552","CENTER_NAME":"EARTH","MEAN_ELEMENT_THEORY":"SGP4","OBJECT_ID":"2021-041AH","ARG_OF_PERICENTER":"66.6355","TLE_LINE2":"2 48584  53.0552 290.3239 0001403  66.6355 293.4782 15.06395820 66677","CLASSIFICATION_TYPE":"U","MEAN_ANOMALY":"293.4782","COUNTRY_CODE":"US","DECAY_DATE":null,"MEAN_MOTION":"15.06395820","REF_FRAME":"TEME","LAUNCH_DATE":"2021-05-15","TIME_SYSTEM":"UTC","PERIOD":"95.592","RA_OF_ASC_NODE":"290.3239","OBJECT_TYPE":"PAYLOAD","EPHEMERIS_TYPE":"0","SEMIMAJOR_AXIS":"6925.361","APOAPSIS":"548.198","BSTAR":"0.00004309800000","RCS_SIZE":"LARGE","FILE":"3526929","TLE_LINE1":"1 48584U 21041AH  22213.48044787  .00000360  00000-0  43098-4 0  9996","REV_AT_EPOCH":"6667","PERIAPSIS":"546.255","ECCENTRICITY":"0.00014030","NORAD_CAT_ID":"48584","OBJECT_NAME":"STARLINK-2238","EPOCH":"2022-08-01T11:31:50.695968","SITE":"AFETR","GP_ID":"209333551","ELEMENT_SET_NO":"999","MEAN_MOTION_DDOT":"0.0000000000000"},{"LAUNCH_DATE":"2021-05-15","REF_FRAME":"TEME","MEAN_MOTION":"15.06400146","DECAY_DATE":null,"CLASSIFICATION_TYPE":"U","MEAN_ANOMALY":"286.5715","COUNTRY_CODE":"US","EPHEMERIS_TYPE":"0","PERIOD":"95.592","TIME_SYSTEM":"UTC","OBJECT_TYPE":"PAYLOAD","RA_OF_ASC_NODE":"290.2748","OBJECT_ID":"2021-041AJ","MEAN_ELEMENT_THEORY":"SGP4","CENTER_NAME":"EARTH","MEAN_MOTION_DOT":"0.00002076","INCLINATION":"53.0547","ARG_OF_PERICENTER":"73.5423","TLE_LINE2":"2 48585  53.0547 290.2748 0001356  73.5423 286.5715 15.06400146 66673","PERIAPSIS":"546.274","NORAD_CAT_ID":"48585","ECCENTRICITY":"0.00013560","REV_AT_EPOCH":"6667","ELEMENT_SET_NO":"999","MEAN_MOTION_DDOT":"0.0000000000000","EPOCH":"2022-08-01T11:47:45.193056","OBJECT_NAME":"STARLINK-2240","GP_ID":"209333800","SITE":"AFETR","APOAPSIS":"548.152","SEMIMAJOR_AXIS":"6925.348","RCS_SIZE":"LARGE","BSTAR":"0.00015822000000","TLE_LINE1":"1 48585U 21041AJ  22213.49149529  .00002076  00000-0  15822-3 0  9997","FILE":"3526929"},{"REV_AT_EPOCH":"6670","PERIAPSIS":"546.386","NORAD_CAT_ID":"48586","ECCENTRICITY":"0.00012080","EPOCH":"2022-08-01T16:23:45.887136","OBJECT_NAME":"STARLINK-2241","SITE":"AFETR","GP_ID":"209389223","ELEMENT_SET_NO":"999","MEAN_MOTION_DDOT":"0.0000000000000","APOAPSIS":"548.059","SEMIMAJOR_AXIS":"6925.357","RCS_SIZE":"LARGE","BSTAR":"0.00002133800000","TLE_LINE1":"1 48586U 21041AK  22213.68316999  .00000036  00000-0  21338-4 0  9990","FILE":"3527139","CLASSIFICATION_TYPE":"U","MEAN_ANOMALY":"281.9292","COUNTRY_CODE":"US","REF_FRAME":"TEME","LAUNCH_DATE":"2021-05-15","MEAN_MOTION":"15.06397176","DECAY_DATE":null,"PERIOD":"95.592","TIME_SYSTEM":"UTC","OBJECT_TYPE":"PAYLOAD","RA_OF_ASC_NODE":"289.4074","EPHEMERIS_TYPE":"0","MEAN_MOTION_DOT":"0.00000036","INCLINATION":"53.0546","OBJECT_ID":"2021-041AK","MEAN_ELEMENT_THEORY":"SGP4","CENTER_NAME":"EARTH","ARG_OF_PERICENTER":"78.1832","TLE_LINE2":"2 48586  53.0546 289.4074 0001208  78.1832 281.9292 15.06397176 66707"}];
